{"type": "FeatureCollection", "features": [ {"type": "Feature", "properties": {"norad_id": 66998, "name": "2025-292F", "group": "last-30-days", "lat": -37.49207791850173, "lon": 71.4054920704092, "alt_km": 554.4312967592859, "timestamp": "2025-12-18T23:35:47.783915+00:00", "meta": {"OBJECT_NAME": "2025-292F", "OBJECT_ID": "2025-292F", "EPOCH": "2025-12-18T14:11:23.242272", "MEAN_MOTION": 15.04885375, "ECCENTRICITY": 0.00145659, "INCLINATION": 97.6566, "RA_OF_ASC_NODE": 65.0937, "ARG_OF_PERICENTER": 255.9353, "MEAN_ANOMALY": 104.0254, "EPHEMERIS_TYPE": 0, "CLASSIFICATION_TYPE": "U", "NORAD_CAT_ID": 66998, "ELEMENT_SET_NO": 999, "REV_AT_EPOCH": 127, "BSTAR": 0.00029583795, "MEAN_MOTION_DOT": 4.132e-05, "MEAN_MOTION_DDOT": 0}, "tle": {"line1": "1 66998U 25292F   25352.59124123  .00004132  00000+0  29584-3 0  9992", "line2": "2 66998  97.6566  65.0937 0014565 255.9353 104.0254 15.04885375  1274"}}, "geometry": {"type": "Point", "coordinates": [71.4054920704092, -37.49207791850173]}}, {"type": "Feature", "properties": {"norad_id": 66999, "name": "2025-292G", "group": "last-30-days", "lat": -35.52103226249051, "lon": 70.99531085989082, "alt_km": 554.2424685388751, "timestamp": "2025-12-18T23:35:47.783925+00:00", "meta": {"OBJECT_NAME": "2025-292G", "OBJECT_ID": "2025-292G", "EPOCH": "2025-12-18T14:10:52.724064", "MEAN_MOTION": 15.04949097, "ECCENTRICITY": 0.00140783, "INCLINATION": 97.6575, "RA_OF_ASC_NODE": 65.095, "ARG_OF_PERICENTER": 258.066, "MEAN_ANOMALY": 101.8988, "EPHEMERIS_TYPE": 0, "CLASSIFICATION_TYPE": "U", "NORAD_CAT_ID": 66999, "ELEMENT_SET_NO": 999, "REV_AT_EPOCH": 127, "BSTAR": 0.00029420308, "MEAN_MOTION_DOT": 4.115e-05, "MEAN_MOTION_DDOT": 0}, "tle": {"line1": "1 66999U 25292G   25352.59088801  .00004115  00000+0  29420-3 0  9995", "line2": "2 66999  97.6575  65.0950 0014078 258.0660 101.8988 15.04949097  1275"}}, "geometry": {"type": "Point", "coordinates": [70.99531085989082, -35.52103226249051]}}, {"type": "Feature", "properties": {"norad_id": 67000, "name": "2025-292H", "group": "last-30-days", "lat": -35.51890336529393, "lon": 70.99518168465092, "alt_km": 554.1982080280486, "timestamp": "2025-12-18T23:35:47.783935+00:00", "meta": {"OBJECT_NAME": "2025-292H", "OBJECT_ID": "2025-292H", "EPOCH": "2025-12-17T15:50:27.314304", "MEAN_MOTION": 15.04941506, "ECCENTRICITY": 0.00140318, "INCLINATION": 97.6577, "RA_OF_ASC_NODE": 64.1722, "ARG_OF_PERICENTER": 261.5567, "MEAN_ANOMALY": 98.4069, "EPHEMERIS_TYPE": 0, "CLASSIFICATION_TYPE": "U", "NORAD_CAT_ID": 67000, "ELEMENT_SET_NO": 999, "REV_AT_EPOCH": 100, "BSTAR": 0.00033244641, "MEAN_MOTION_DOT": 4.658e-05, "MEAN_MOTION_DDOT": 0}, "tle": {"line1": "1 67000U 25292H   25351.66003836  .00004658  00000+0  33245-3 0  9993", "line2": "2 67000  97.6577  64.1722 0014031 261.5567  98.4069 15.04941506  1001"}}, "geometry": {"type": "Point", "coordinates": [70.99518168465092, -35.51890336529393]}}, {"type": "Feature", "properties": {"norad_id": 67001, "name": "2025-292J", "group": "last-30-days", "lat": -53.6859384629133, "lon": 76.02234576704029, "alt_km": 555.5762889165944, "timestamp": "2025-12-18T23:35:47.783946+00:00", "meta": {"OBJECT_NAME": "2025-292J", "OBJECT_ID": "2025-292J", "EPOCH": "2025-12-18T14:15:35.413632", "MEAN_MOTION": 15.04364599, "ECCENTRICITY": 0.00142651, "INCLINATION": 97.6567, "RA_OF_ASC_NODE": 65.0899, "ARG_OF_PERICENTER": 246.6502, "MEAN_ANOMALY": 113.3224, "EPHEMERIS_TYPE": 0, "CLASSIFICATION_TYPE": "U", "NORAD_CAT_ID": 67001, "ELEMENT_SET_NO": 999, "REV_AT_EPOCH": 127, "BSTAR": 0.00031847895, "MEAN_MOTION_DOT": 4.391e-05, "MEAN_MOTION_DDOT": 0}, "tle": {"line1": "1 67001U 25292J   25352.59415988  .00004391  00000+0  31848-3 0  9993", "line2": "2 67001  97.6567  65.0899 0014265 246.6502 113.3224 15.04364599  1278"}}, "geometry": {"type": "Point", "coordinates": [76.02234576704029, -53.6859384629133]}}, {"type": "Feature", "properties": {"norad_id": 67002, "name": "ZK-1A R/B", "group": "last-30-days", "lat": 64.65888008774434, "lon": -97.07681214731129, "alt_km": 484.51452078017155, "timestamp": "2025-12-18T23:35:47.783991+00:00", "meta": {"OBJECT_NAME": "ZK-1A R/B", "OBJECT_ID": "2025-292K", "EPOCH": "2025-12-18T04:35:51.387936", "MEAN_MOTION": 15.56337794, "ECCENTRICITY": 0.0213767, "INCLINATION": 97.7234, "RA_OF_ASC_NODE": 65.4127, "ARG_OF_PERICENTER": 345.9205, "MEAN_ANOMALY": 13.6145, "EPHEMERIS_TYPE": 0, "CLASSIFICATION_TYPE": "U", "NORAD_CAT_ID": 67002, "ELEMENT_SET_NO": 999, "REV_AT_EPOCH": 124, "BSTAR": 0.00073146183, "MEAN_MOTION_DOT": 0.00151802, "MEAN_MOTION_DDOT": 8.225292e-06}, "tle": {"line1": "1 67002U 25292K   25352.19156699  .00151802  82253-5  73146-3 0  9994", "line2": "2 67002  97.7234  65.4127 0213767 345.9205  13.6145 15.56337794  1245"}}, "geometry": {"type": "Point", "coordinates": [-97.07681214731129, 64.65888008774434]}}, {"type": "Feature", "properties": {"norad_id": 67003, "name": "STARLINK-35660", "group": "last-30-days", "lat": 36.428696483784655, "lon": 110.0813926320002, "alt_km": 286.9041919340025, "timestamp": "2025-12-18T23:35:47.784004+00:00", "meta": {"OBJECT_NAME": "STARLINK-35660", "OBJECT_ID": "2025-293A", "EPOCH": "2025-12-17T20:00:01.999872", "MEAN_MOTION": 15.96949357, "ECCENTRICITY": 0.00041285, "INCLINATION": 69.9938, "RA_OF_ASC_NODE": 309.0388, "ARG_OF_PERICENTER": 267.0417, "MEAN_ANOMALY": 109.6865, "EPHEMERIS_TYPE": 0, "CLASSIFICATION_TYPE": "U", "NORAD_CAT_ID": 67003, "ELEMENT_SET_NO": 999, "REV_AT_EPOCH": 238, "BSTAR": -0.0021949135, "MEAN_MOTION_DOT": -0.00948175, "MEAN_MOTION_DDOT": 0.00028832242}, "tle": {"line1": "1 67003U 25293A   25351.83335648 -.00948175  28832-3 -21949-2 0  9992", "line2": "2 67003  69.9938 309.0388 0004128 267.0417 109.6865 15.96949357  2381"}}, "geometry": {"type": "Point", "coordinates": [110.0813926320002, 36.428696483784655]}}, {"type": "Feature", "properties": {"norad_id": 67004, "name": "STARLINK-35913", "group": "last-30-days", "lat": 34.703797224659596, "lon": 111.06304281725305, "alt_km": 286.7247786173939, "timestamp": "2025-12-18T23:35:47.784017+00:00", "meta": {"OBJECT_NAME": "STARLINK-35913", "OBJECT_ID": "2025-293B", "EPOCH": "2025-12-17T20:00:01.999872", "MEAN_MOTION": 15.97007544, "ECCENTRICITY": 0.0004053, "INCLINATION": 69.9938, "RA_OF_ASC_NODE": 309.0368, "ARG_OF_PERICENTER": 264.5457, "MEAN_ANOMALY": 113.7697, "EPHEMERIS_TYPE": 0, "CLASSIFICATION_TYPE": "U", "NORAD_CAT_ID": 67004, "ELEMENT_SET_NO": 999, "REV_AT_EPOCH": 238, "BSTAR": -0.0021504018, "MEAN_MOTION_DOT": -0.00932001, "MEAN_MOTION_DDOT": 0.00027947769}, "tle": {"line1": "1 67004U 25293B   25351.83335648 -.00932001  27948-3 -21504-2 0  9998", "line2": "2 67004  69.9938 309.0368 0004053 264.5457 113.7697 15.97007544  2386"}}, "geometry": {"type": "Point", "coordinates": [111.06304281725305, 34.703797224659596]}}, {"type": "Feature", "properties": {"norad_id": 67005, "name": "STARLINK-36148", "group": "last-30-days", "lat": 32.92646905689206, "lon": 112.02874102276016, "alt_km": 286.9234313982988, "timestamp": "2025-12-18T23:35:47.784028+00:00", "meta": {"OBJECT_NAME": "STARLINK-36148", "OBJECT_ID": "2025-293C", "EPOCH": "2025-12-17T20:00:01.999872", "MEAN_MOTION": 15.97088495, "ECCENTRICITY": 0.00041461, "INCLINATION": 69.9939, "RA_OF_ASC_NODE": 309.0351, "ARG_OF_PERICENTER": 266.6812, "MEAN_ANOMALY": 113.3161, "EPHEMERIS_TYPE": 0, "CLASSIFICATION_TYPE": "U", "NORAD_CAT_ID": 67005, "ELEMENT_SET_NO": 999, "REV_AT_EPOCH": 238, "BSTAR": -0.0021761225, "MEAN_MOTION_DOT": -0.0094726, "MEAN_MOTION_DDOT": 0.00028823862}, "tle": {"line1": "1 67005U 25293C   25351.83335648 -.00947260  28824-3 -21761-2 0  9991", "line2": "2 67005  69.9939 309.0351 0004146 266.6812 113.3161 15.97088495  2387"}}, "geometry": {"type": "Point", "coordinates": [112.02874102276016, 32.92646905689206]}}, {"type": "Feature", "properties": {"norad_id": 67006, "name": "STARLINK-36156", "group": "last-30-days", "lat": 28.617527706960335, "lon": 114.20370366361128, "alt_km": 286.97809774102643, "timestamp": "2025-12-18T23:35:47.784037+00:00", "meta": {"OBJECT_NAME": "STARLINK-36156", "OBJECT_ID": "2025-293D", "EPOCH": "2025-12-17T20:00:01.999872", "MEAN_MOTION": 15.97269332, "ECCENTRICITY": 0.00041045, "INCLINATION": 69.9938, "RA_OF_ASC_NODE": 309.0299, "ARG_OF_PERICENTER": 266.4594, "MEAN_ANOMALY": 117.5341, "EPHEMERIS_TYPE": 0, "CLASSIFICATION_TYPE": "U", "NORAD_CAT_ID": 67006, "ELEMENT_SET_NO": 999, "REV_AT_EPOCH": 238, "BSTAR": -0.0021807905, "MEAN_MOTION_DOT": -0.00958648, "MEAN_MOTION_DDOT": 0.00029524434}, "tle": {"line1": "1 67006U 25293D   25351.83335648 -.00958648  29524-3 -21808-2 0  9994", "line2": "2 67006  69.9938 309.0299 0004104 266.4594 117.5341 15.97269332  2384"}}, "geometry": {"type": "Point", "coordinates": [114.20370366361128, 28.617527706960335]}}, {"type": "Feature", "properties": {"norad_id": 67007, "name": "STARLINK-36123", "group": "last-30-days", "lat": 30.573452003472884, "lon": 113.24237337398388, "alt_km": 286.9095247549594, "timestamp": "2025-12-18T23:35:47.784048+00:00", "meta": {"OBJECT_NAME": "STARLINK-36123", "OBJECT_ID": "2025-293E", "EPOCH": "2025-12-17T20:00:01.999872", "MEAN_MOTION": 15.97188271, "ECCENTRICITY": 0.00041101, "INCLINATION": 69.9936, "RA_OF_ASC_NODE": 309.032, "ARG_OF_PERICENTER": 265.4955, "MEAN_ANOMALY": 116.6939, "EPHEMERIS_TYPE": 0, "CLASSIFICATION_TYPE": "U", "NORAD_CAT_ID": 67007, "ELEMENT_SET_NO": 999, "REV_AT_EPOCH": 238, "BSTAR": -0.0021833236, "MEAN_MOTION_DOT": -0.00955528, "MEAN_MOTION_DDOT": 0.00029321675}, "tle": {"line1": "1 67007U 25293E   25351.83335648 -.00955528  29322-3 -21833-2 0  9993", "line2": "2 67007  69.9936 309.0320 0004110 265.4955 116.6939 15.97188271  2380"}}, "geometry": {"type": "Point", "coordinates": [113.24237337398388, 30.573452003472884]}}]}